{
  "type": "FeatureCollection",
  "features": [
    {
      "type": "Feature",
      "properties": {
        "id": "zone.1787100081821.7851",
        "type": "no_go",
        "enabled": true
      },
      "geometry": {
        "type": "Polygon",
        "coordinates": [
          [
            [
              -64.24086391925813,
              -31.4857871562565
            ],
            [
              -64.24086324870588,
              -31.485812888453452
            ],
            [
              -64.24083106219769,
              -31.485814603932997
            ],
            [
              -64.24083407968283,
              -31.485789729476515
            ],
            [
              -64.24086391925813,
              -31.4857871562565
            ]
          ]
        ]
      }
    }
  ]
}
